{"type": "FeatureCollection", "features": [ {"type": "Feature", "properties": {"norad_id": 38755, "name": "SPOT 6", "group": "resource", "lat": -81.3752508799526, "lon": 122.0498426320995, "alt_km": 705.8245005230492, "timestamp": "2025-12-12T05:47:28.428851+00:00", "meta": {"OBJECT_NAME": "SPOT 6", "OBJECT_ID": "2012-047A", "EPOCH": "2025-12-12T01:15:05.234688", "MEAN_MOTION": 14.58601949, "ECCENTRICITY": 0.00011113, "INCLINATION": 98.1568, "RA_OF_ASC_NODE": 50.8488, "ARG_OF_PERICENTER": 94.6562, "MEAN_ANOMALY": 265.4764, "EPHEMERIS_TYPE": 0, "CLASSIFICATION_TYPE": "U", "NORAD_CAT_ID": 38755, "ELEMENT_SET_NO": 999, "REV_AT_EPOCH": 70577, "BSTAR": 0.00014919534, "MEAN_MOTION_DOT": 6.49e-06, "MEAN_MOTION_DDOT": 0}, "tle": {"line1": "1 38755U 12047A   25346.05214392  .00000649  00000+0  14920-3 0  9995", "line2": "2 38755  98.1568  50.8488 0001111  94.6562 265.4764 14.58601949705773"}}, "geometry": {"type": "Point", "coordinates": [122.0498426320995, -81.3752508799526]}}, {"type": "Feature", "properties": {"norad_id": 39019, "name": "PLEIADES 1B", "group": "resource", "lat": 8.331556772045221, "lon": -119.89277408142861, "alt_km": 699.7102222752874, "timestamp": "2025-12-12T05:47:28.428861+00:00", "meta": {"OBJECT_NAME": "PLEIADES 1B", "OBJECT_ID": "2012-068A", "EPOCH": "2025-12-12T00:04:06.190752", "MEAN_MOTION": 14.58551428, "ECCENTRICITY": 0.00012321, "INCLINATION": 98.179, "RA_OF_ASC_NODE": 58.6657, "ARG_OF_PERICENTER": 80.7799, "MEAN_ANOMALY": 279.354, "EPHEMERIS_TYPE": 0, "CLASSIFICATION_TYPE": "U", "NORAD_CAT_ID": 39019, "ELEMENT_SET_NO": 999, "REV_AT_EPOCH": 69356, "BSTAR": 0.00014807583, "MEAN_MOTION_DOT": 6.43e-06, "MEAN_MOTION_DDOT": 0}, "tle": {"line1": "1 39019U 12068A   25346.00284943  .00000643  00000+0  14808-3 0  9995", "line2": "2 39019  98.1790  58.6657 0001232  80.7799 279.3540 14.58551428693565"}}, "geometry": {"type": "Point", "coordinates": [-119.89277408142861, 8.331556772045221]}}, {"type": "Feature", "properties": {"norad_id": 39030, "name": "GOKTURK 2", "group": "resource", "lat": -3.2760103857360097, "lon": -171.637507279564, "alt_km": 647.8415398139568, "timestamp": "2025-12-12T05:47:28.428871+00:00", "meta": {"OBJECT_NAME": "GOKTURK 2", "OBJECT_ID": "2012-073A", "EPOCH": "2025-12-12T00:55:22.088640", "MEAN_MOTION": 14.75289693, "ECCENTRICITY": 9.763e-05, "INCLINATION": 97.6893, "RA_OF_ASC_NODE": 187.7266, "ARG_OF_PERICENTER": 102.0515, "MEAN_ANOMALY": 258.0805, "EPHEMERIS_TYPE": 0, "CLASSIFICATION_TYPE": "U", "NORAD_CAT_ID": 39030, "ELEMENT_SET_NO": 999, "REV_AT_EPOCH": 69691, "BSTAR": 0.00016240878, "MEAN_MOTION_DOT": 1.053e-05, "MEAN_MOTION_DDOT": 0}, "tle": {"line1": "1 39030U 12073A   25346.03845010  .00001053  00000+0  16241-3 0  9994", "line2": "2 39030  97.6893 187.7266 0000976 102.0515 258.0805 14.75289693696915"}}, "geometry": {"type": "Point", "coordinates": [-171.637507279564, -3.2760103857360097]}}, {"type": "Feature", "properties": {"norad_id": 39084, "name": "LANDSAT 8", "group": "resource", "lat": -15.896514956182076, "lon": 56.677789925013656, "alt_km": 707.4874055046657, "timestamp": "2025-12-12T05:47:28.428882+00:00", "meta": {"OBJECT_NAME": "LANDSAT 8", "OBJECT_ID": "2013-008A", "EPOCH": "2025-12-11T23:16:21.057888", "MEAN_MOTION": 14.57112856, "ECCENTRICITY": 0.00010922, "INCLINATION": 98.2073, "RA_OF_ASC_NODE": 54.0545, "ARG_OF_PERICENTER": 88.3191, "MEAN_ANOMALY": 271.8132, "EPHEMERIS_TYPE": 0, "CLASSIFICATION_TYPE": "U", "NORAD_CAT_ID": 39084, "ELEMENT_SET_NO": 999, "REV_AT_EPOCH": 67063, "BSTAR": 0.00015777612, "MEAN_MOTION_DOT": 6.66e-06, "MEAN_MOTION_DDOT": 0}, "tle": {"line1": "1 39084U 13008A   25345.96968817  .00000666  00000+0  15778-3 0  9997", "line2": "2 39084  98.2073  54.0545 0001092  88.3191 271.8132 14.57112856670636"}}, "geometry": {"type": "Point", "coordinates": [56.677789925013656, -15.896514956182076]}}, {"type": "Feature", "properties": {"norad_id": 39086, "name": "SARAL", "group": "resource", "lat": 13.091001896506334, "lon": 168.17321294529435, "alt_km": 783.8237828162619, "timestamp": "2025-12-12T05:47:28.428892+00:00", "meta": {"OBJECT_NAME": "SARAL", "OBJECT_ID": "2013-009A", "EPOCH": "2025-12-11T23:01:31.411776", "MEAN_MOTION": 14.32756618, "ECCENTRICITY": 0.00028541, "INCLINATION": 98.5503, "RA_OF_ASC_NODE": 169.9, "ARG_OF_PERICENTER": 110.0392, "MEAN_ANOMALY": 250.1099, "EPHEMERIS_TYPE": 0, "CLASSIFICATION_TYPE": "U", "NORAD_CAT_ID": 39086, "ELEMENT_SET_NO": 999, "REV_AT_EPOCH": 66879, "BSTAR": 9.1109294e-05, "MEAN_MOTION_DOT": 2.04e-06, "MEAN_MOTION_DDOT": 0}, "tle": {"line1": "1 39086U 13009A   25345.95939134  .00000204  00000+0  91109-4 0  9990", "line2": "2 39086  98.5503 169.9000 0002854 110.0392 250.1099 14.32756618668793"}}, "geometry": {"type": "Point", "coordinates": [168.17321294529435, 13.091001896506334]}}, {"type": "Feature", "properties": {"norad_id": 39150, "name": "GAOFEN-1", "group": "resource", "lat": 70.7242775527553, "lon": 33.41287633459769, "alt_km": 629.5117606122158, "timestamp": "2025-12-12T05:47:28.428902+00:00", "meta": {"OBJECT_NAME": "GAOFEN-1", "OBJECT_ID": "2013-018A", "EPOCH": "2025-12-12T00:35:06.107136", "MEAN_MOTION": 14.76531141, "ECCENTRICITY": 0.00181753, "INCLINATION": 97.9322, "RA_OF_ASC_NODE": 56.6958, "ARG_OF_PERICENTER": 145.2018, "MEAN_ANOMALY": 215.0384, "EPHEMERIS_TYPE": 0, "CLASSIFICATION_TYPE": "U", "NORAD_CAT_ID": 39150, "ELEMENT_SET_NO": 999, "REV_AT_EPOCH": 68062, "BSTAR": 0.00017872863, "MEAN_MOTION_DOT": 1.198e-05, "MEAN_MOTION_DDOT": 0}, "tle": {"line1": "1 39150U 13018A   25346.02437624  .00001198  00000+0  17873-3 0  9996", "line2": "2 39150  97.9322  56.6958 0018175 145.2018 215.0384 14.76531141680622"}}, "geometry": {"type": "Point", "coordinates": [33.41287633459769, 70.7242775527553]}}, {"type": "Feature", "properties": {"norad_id": 39160, "name": "VNREDSAT 1", "group": "resource", "lat": 23.717738850631775, "lon": -134.9526302488346, "alt_km": 676.6212140590524, "timestamp": "2025-12-12T05:47:28.428913+00:00", "meta": {"OBJECT_NAME": "VNREDSAT 1", "OBJECT_ID": "2013-021B", "EPOCH": "2025-12-12T00:09:50.277888", "MEAN_MOTION": 14.64921097, "ECCENTRICITY": 0.00013228, "INCLINATION": 97.9372, "RA_OF_ASC_NODE": 41.307, "ARG_OF_PERICENTER": 78.5614, "MEAN_ANOMALY": 281.5738, "EPHEMERIS_TYPE": 0, "CLASSIFICATION_TYPE": "U", "NORAD_CAT_ID": 39160, "ELEMENT_SET_NO": 999, "REV_AT_EPOCH": 67288, "BSTAR": 0.00022851852, "MEAN_MOTION_DOT": 1.177e-05, "MEAN_MOTION_DDOT": 0}, "tle": {"line1": "1 39160U 13021B   25346.00683192  .00001177  00000+0  22852-3 0  9992", "line2": "2 39160  97.9372  41.3070 0001322  78.5614 281.5738 14.64921097672880"}}, "geometry": {"type": "Point", "coordinates": [-134.9526302488346, 23.717738850631775]}}, {"type": "Feature", "properties": {"norad_id": 39227, "name": "ARIRANG-5 (KOMPSAT-5)", "group": "resource", "lat": 16.29961949114316, "lon": -7.205836753552528, "alt_km": 554.5020947578287, "timestamp": "2025-12-12T05:47:28.428923+00:00", "meta": {"OBJECT_NAME": "ARIRANG-5 (KOMPSAT-5)", "OBJECT_ID": "2013-042A", "EPOCH": "2025-12-12T00:16:43.669056", "MEAN_MOTION": 15.04499922, "ECCENTRICITY": 0.00036718, "INCLINATION": 97.6144, "RA_OF_ASC_NODE": 170.326, "ARG_OF_PERICENTER": 57.0165, "MEAN_ANOMALY": 303.1414, "EPHEMERIS_TYPE": 0, "CLASSIFICATION_TYPE": "U", "NORAD_CAT_ID": 39227, "ELEMENT_SET_NO": 999, "REV_AT_EPOCH": 67571, "BSTAR": 0.00023717195, "MEAN_MOTION_DOT": 3.26e-05, "MEAN_MOTION_DDOT": 0}, "tle": {"line1": "1 39227U 13042A   25346.01161654  .00003260  00000+0  23717-3 0  9990", "line2": "2 39227  97.6144 170.3260 0003671  57.0165 303.1414 15.04499922675713"}}, "geometry": {"type": "Point", "coordinates": [-7.205836753552528, 16.29961949114316]}}, {"type": "Feature", "properties": {"norad_id": 39418, "name": "SKYSAT-A", "group": "resource", "lat": 16.214967504438533, "lon": -141.36585078520523, "alt_km": 528.2976997966325, "timestamp": "2025-12-12T05:47:28.428933+00:00", "meta": {"OBJECT_NAME": "SKYSAT-A", "OBJECT_ID": "2013-066C", "EPOCH": "2025-12-11T22:42:47.738304", "MEAN_MOTION": 15.11595688, "ECCENTRICITY": 0.0020644, "INCLINATION": 97.4112, "RA_OF_ASC_NODE": 36.1788, "ARG_OF_PERICENTER": 239.3533, "MEAN_ANOMALY": 120.5663, "EPHEMERIS_TYPE": 0, "CLASSIFICATION_TYPE": "U", "NORAD_CAT_ID": 39418, "ELEMENT_SET_NO": 999, "REV_AT_EPOCH": 66018, "BSTAR": 0.00035303578, "MEAN_MOTION_DOT": 5.961e-05, "MEAN_MOTION_DDOT": 0}, "tle": {"line1": "1 39418U 13066C   25345.94638586  .00005961  00000+0  35304-3 0  9997", "line2": "2 39418  97.4112  36.1788 0020644 239.3533 120.5663 15.11595688660181"}}, "geometry": {"type": "Point", "coordinates": [-141.36585078520523, 16.214967504438533]}}, {"type": "Feature", "properties": {"norad_id": 39419, "name": "DUBAISAT-2", "group": "resource", "lat": -47.92677957636431, "lon": -15.006199492064184, "alt_km": 540.8069438504754, "timestamp": "2025-12-12T05:47:28.428944+00:00", "meta": {"OBJECT_NAME": "DUBAISAT-2", "OBJECT_ID": "2013-066D", "EPOCH": "2025-12-11T23:38:12.268608", "MEAN_MOTION": 15.08351031, "ECCENTRICITY": 0.00107458, "INCLINATION": 97.4456, "RA_OF_ASC_NODE": 336.4155, "ARG_OF_PERICENTER": 323.739, "MEAN_ANOMALY": 36.3109, "EPHEMERIS_TYPE": 0, "CLASSIFICATION_TYPE": "U", "NORAD_CAT_ID": 39419, "ELEMENT_SET_NO": 999, "REV_AT_EPOCH": 65815, "BSTAR": 0.00061444542, "MEAN_MOTION_DOT": 9.5e-05, "MEAN_MOTION_DDOT": 0}, "tle": {"line1": "1 39419U 13066D   25345.98486422  .00009500  00000+0  61445-3 0  9990", "line2": "2 39419  97.4456 336.4155 0010745 323.7390  36.3109 15.08351031658158"}}, "geometry": {"type": "Point", "coordinates": [-15.006199492064184, -47.92677957636431]}}]}